[
  {
    "id": "1204",
    "desc": "LAÍS MARQUES DISTRIBUIDORA, ANA LAÍS, (61)99831-5732, analaismarques25@gmail.com",
    "locale": "Distrito Federal, DISTRITO FEDERAL, Brasil",
    "postalCode": "Não possui CEP",
    "lat": 0,
    "lon": 0,
    "imageUrl": ""
  },
  {
  "id": 1280,
  "desc": "DANI RIO DISTRIBUIDORA, DANIELLE, (21)99067-3707, daniriodistribuidora@gmail.com",
  "locale": "Zona Norte, Rio de Janeiro, Brasil",
  "postalCode": "--",
  "lat": 0,
  "lon": 0
},
{
  "id": 1281,
  "desc": "DÉCIO, (11)95630-3077, dpacheco62@hotmail.com",
  "locale": "Zona Norte de São Paulo, São Paulo, Brasil",
  "postalCode": "-",
  "lat": 0,
  "lon": 0
},
{
  "id": 1282,
  "desc": "011 PET, CHRISTIANO, (11)96143-5939, christianofs@hotmail.com",
  "locale": "São Paulo, São Paulo, Brasil",
  "postalCode": "-",
  "lat": 0,
  "lon": 0
},
{
  "id": 1283,
  "desc": "011 PET, CHRISTIANO, (11)96143-5939, christianofs@hotmail.com",
  "locale": "Zona Leste de São Paulo, São Paulo, Brasil",
  "postalCode": "-",
  "lat": 0,
  "lon": 0
},
{
  "id": 1284,
  "desc": "DANI RIO DISTRIBUIDORA, DANIELLE, (21)99067-3707, daniriodistribuidora@gmail.com",
  "locale": "Baixada Fluminense, Rio de Janeiro, Brasil",
  "postalCode": "--",
  "lat": 0,
  "lon": 0
},
{
  "id": 1285,
  "desc": "DANI RIO DISTRIBUIDORA, DANIELLE, (21)99067-3707, daniriodistribuidora@gmail.com",
  "locale": "Zona Oeste, Rio de Janeiro, Brasil",
  "postalCode": "--",
  "lat": 0,
  "lon": 0
},
{
  "id": 1286,
  "desc": "DANI RIO DISTRIBUIDORA, DANIELLE, (21)99067-3707, daniriodistribuidora@gmail.com",
  "locale": "Centro, Rio de Janeiro, Brasil",
  "postalCode": "--",
  "lat": 0,
  "lon": 0
},
{
  "id": 1287,
  "desc": "DANI RIO DISTRIBUIDORA, DANIELLE, (21)99067-3707, daniriodistribuidora@gmail.com",
  "locale": "Zona Sul, Rio de Janeiro, Brasil",
  "postalCode": "--",
  "lat": 0,
  "lon": 0
},
{
  "id": 1288,
  "desc": "VALENTIM DISTRIBUIDORA, GENIVALDO, (82)99607-0492, valentimrepltda@hotmail.com",
  "locale": "Estado de Alagoas, Alagoas, Brasil",
  "postalCode": "-",
  "lat": 0,
  "lon": 0
},
{
  "id": 1289,
  "desc": "VALENTIM DISTRIBUIDORA, GENIVALDO, (82)99607-0492, valentimrepltda@hotmail.com",
  "locale": "Paulo Afonso BA, Alagoas, Brasil",
  "postalCode": "-",
  "lat": 0,
  "lon": 0
},
{
  "id": 1290,
  "desc": "VALENTIM DISTRIBUIDORA, GENIVALDO, (82)99607-0492, valentimrepltda@hotmail.com",
  "locale": "Petrolandia PE, Alagoas, Brasil",
  "postalCode": "-",
  "lat": 0,
  "lon": 0
},
{
  "id": 1291,
  "desc": "011 PET, CHRISTIANO, (11)96143-5939, christianofs@hotmail.com",
  "locale": "Zona Sul de São Paulo, São Paulo, Brasil",
  "postalCode": "-",
  "lat": 0,
  "lon": 0
},
{
  "id": 1292,
  "desc": "PET SAÚDE, SHIRLEI, (21)98144-9131, shirleyperret06@gmail.com",
  "locale": "Região Serrana, Rio de Janeiro, Brasil",
  "postalCode": "--",
  "lat": 0,
  "lon": 0
},
{
  "id": 1293,
  "desc": "PET SAÚDE, SHIRLEI, (21)98144-9131, shirleyperret06@gmail.com",
  "locale": "Região dos Lagos, Rio de Janeiro, Brasil",
  "postalCode": "--",
  "lat": 0,
  "lon": 0
},
{
  "id": 1294,
  "desc": "AJS, ANTONIO, (92)98132-7475, ajsoliveira@hotmail.com",
  "locale": "Região Metropolitana de Manaus, Amazonas, Brasil",
  "postalCode": "-",
  "lat": 0,
  "lon": 0
}
]
